[{"OBJECT_NAME":"SDA_1670","OBJECT_ID":"2025-230G","EPOCH":"2026-03-09T17:23:00.469536","MEAN_MOTION":13.84837821,"ECCENTRICITY":0.00038733,"INCLINATION":81.2981,"RA_OF_ASC_NODE":303.9295,"ARG_OF_PERICENTER":76.4422,"MEAN_ANOMALY":283.7167,"EPHEMERIS_TYPE":0,"CLASSIFICATION_TYPE":"U","NORAD_CAT_ID":65980,"ELEMENT_SET_NO":999,"REV_AT_EPOCH":2004,"BSTAR":9.0952862e-5,"MEAN_MOTION_DOT":1.14e-6,"MEAN_MOTION_DDOT":0},{"OBJECT_NAME":"COSMOS 2251 DEB","OBJECT_ID":"1993-036AVB","EPOCH":"2026-03-01T16:32:46.210272","MEAN_MOTION":14.05894038,"ECCENTRICITY":0.01905052,"INCLINATION":73.9258,"RA_OF_ASC_NODE":65.263,"ARG_OF_PERICENTER":340.3294,"MEAN_ANOMALY":19.0559,"EPHEMERIS_TYPE":0,"CLASSIFICATION_TYPE":"U","NORAD_CAT_ID":35961,"ELEMENT_SET_NO":999,"REV_AT_EPOCH":63791,"BSTAR":0.0021300088,"MEAN_MOTION_DOT":4.081e-5,"MEAN_MOTION_DDOT":0}]
